OBJECT_NAME,OBJECT_ID,EPOCH,MEAN_MOTION,ECCENTRICITY,INCLINATION,RA_OF_ASC_NODE,ARG_OF_PERICENTER,MEAN_ANOMALY,EPHEMERIS_TYPE,CLASSIFICATION_TYPE,NORAD_CAT_ID,ELEMENT_SET_NO,REV_AT_EPOCH,BSTAR,MEAN_MOTION_DOT,MEAN_MOTION_DDOT
ONEWEB-0130,2020-100U,2026-06-04T01:51:00.261504,13.12442784,.0001773,87.8950,353.2595,97.4158,262.7172,0,U,47276,999,26292,.10893578E-2,.405E-5,0
ONEWEB-0131,2020-100V,2026-06-04T01:46:06.961152,13.12443390,.00017266,87.8940,353.2793,87.5242,272.6085,0,U,47277,999,26296,.11752484E-2,.436E-5,0
ONEWEB-0132,2020-100W,2026-06-04T02:27:35.514432,13.12441733,.00017412,87.8943,353.2754,85.9109,274.2219,0,U,47278,999,26286,-.67107403E-3,-.229E-5,0
ONEWEB-0133,2020-100X,2026-06-04T01:01:59.640096,13.12444798,.00016248,87.8953,353.2614,92.2123,267.9192,0,U,47279,999,26301,-.75316062E-3,-.258E-5,0
ONEWEB-0134,2020-100Y,2026-06-04T02:08:04.220736,13.12443049,.00015235,87.8954,353.2502,93.0759,267.0544,0,U,47280,999,26299,.73556716E-3,.277E-5,0
ONEWEB-0135,2020-100Z,2026-06-04T01:26:35.789280,13.12445507,.00014495,87.8938,353.2798,87.2940,272.8355,0,U,47281,999,26301,.29416706E-3,.119E-5,0
ONEWEB-0136,2020-100AA,2026-06-04T01:53:26.231712,13.12442963,.00014676,87.8953,353.2569,92.4524,267.6773,0,U,47282,999,26294,.1155187E-2,.428E-5,0
ONEWEB-0137,2020-100AB,2026-06-04T00:52:25.941504,13.12443580,.00019272,87.8958,353.2740,97.4121,262.7227,0,U,47283,999,26284,-.10338224E-2,-.359E-5,0
ONEWEB-0138,2020-100AC,2026-06-04T00:20:44.066688,13.12441887,.0001684,87.8955,353.2859,99.7039,260.4280,0,U,47284,999,26292,.37014208E-3,.146E-5,0
ONEWEB-0139,2020-100AD,2026-06-04T01:19:28.644960,13.12445409,.00017685,87.8951,353.2632,95.3646,264.7684,0,U,47285,999,26300,-.39354837E-3,-.129E-5,0
ONEWEB-0140,2020-100AE,2026-06-04T00:13:24.864384,13.12442134,.00017472,87.8952,353.2630,86.1433,273.9895,0,U,47286,999,26296,.10177814E-2,.379E-5,0
ONEWEB-0141,2020-100AF,2026-06-04T01:19:04.798560,13.12445063,.00020168,87.8951,353.2592,91.4621,268.6738,0,U,47287,999,26295,-.73907759E-4,-.14E-6,0
ONEWEB-0142,2020-100AG,2026-06-04T01:02:24.673632,13.12442279,.00020065,87.8947,353.2837,103.3571,256.7781,0,U,47288,999,26294,-.12929801E-2,-.452E-5,0
ONEWEB-0143,2020-100AH,2026-06-04T01:16:50.203776,13.12444739,.00017564,87.8948,353.2796,87.5338,272.5991,0,U,47289,999,26292,-.16465753E-3,-.47E-6,0
ONEWEB-0144,2020-100AJ,2026-06-04T00:35:22.705440,13.12435109,.00012148,87.8960,353.2604,84.5504,275.5764,0,U,47290,999,26284,-.36058353E-2,-.1284E-4,0
ONEWEB-0145,2020-100AK,2026-06-04T01:43:40.975392,13.12443824,.00017273,87.8943,353.2787,90.9290,269.2036,0,U,47291,999,26304,.11626986E-2,.431E-5,0
ONEWEB-0146,2020-100AL,2026-06-04T01:38:48.387840,13.12443933,.00018877,87.8952,353.2704,79.5508,280.5833,0,U,47292,999,26295,.77435131E-3,.291E-5,0
ONEWEB-0147,2020-100AM,2026-06-04T00:49:59.674944,13.12443397,.00016424,87.8959,353.2582,97.6559,262.4756,0,U,47293,999,26284,-.96895597E-3,-.336E-5,0
ONEWEB-0115,2021-025A,2026-06-03T23:55:40.463904,13.13468906,.00018019,87.8948,322.8498,91.6331,268.5005,0,U,48042,999,25186,.80781371E-3,.308E-5,0
ONEWEB-0152,2021-025B,2026-06-04T00:15:10.194624,13.13469028,.00017862,87.8951,322.8437,88.4839,271.6494,0,U,48043,999,25182,.20157564E-3,.86E-6,0
ONEWEB-0153,2021-025C,2026-06-03T23:43:28.998048,13.13469992,.00018027,87.8945,322.8522,95.0164,265.1171,0,U,48044,999,25181,.85004173E-3,.323E-5,0
ONEWEB-0154,2021-025D,2026-06-03T23:38:36.115008,13.13469471,.00017219,87.8944,322.8500,93.1221,267.0105,0,U,48045,999,25177,.70997768E-3,.272E-5,0
ONEWEB-0116,2021-025E,2026-06-03T11:46:46.276896,13.13469607,.000177,87.8953,322.9445,88.4206,271.7126,0,U,48046,999,25185,-.10355323E-2,-.365E-5,0
ONEWEB-0150,2021-025F,2026-06-04T00:00:32.741280,13.13468909,.00020262,87.8952,322.8400,95.5404,264.5956,0,U,48047,999,25181,.7294561E-3,.279E-5,0
ONEWEB-0107,2021-025G,2026-06-04T00:02:58.999200,13.13468882,.00018218,87.8953,322.8358,100.9413,259.1921,0,U,48048,999,25179,.65472683E-3,.252E-5,0
ONEWEB-0101,2021-025H,2026-06-03T23:09:20.939616,13.13470300,.00016788,87.8942,322.8602,96.0944,264.0376,0,U,48049,999,25176,-.56897015E-3,-.195E-5,0
ONEWEB-0113,2021-025J,2026-06-03T23:50:33.937440,13.13895445,.00015982,87.8966,322.7712,76.0548,284.0759,0,U,48050,999,25187,.83673436E-3,.32E-5,0
ONEWEB-0112,2021-025K,2026-06-04T00:10:17.823936,13.13468865,.00016047,87.8955,322.8328,99.1576,260.9734,0,U,48051,999,25186,.29673724E-3,.121E-5,0
ONEWEB-0156,2021-025L,2026-06-04T00:22:28.629696,13.13468936,.00018667,87.8954,322.8411,96.3386,263.7956,0,U,48052,999,25184,-.20381993E-3,-.62E-6,0
ONEWEB-0161,2021-025M,2026-06-03T23:45:55.318176,13.13469896,.0001885,87.8945,322.8480,100.0263,260.1079,0,U,48053,999,25177,.89506214E-3,.34E-5,0
