ONEWEB-0130             
1 47276U 20100U   26155.07708636  .00000405  00000+0  10894-2 0  9997
2 47276  87.8950 353.2595 0001773  97.4158 262.7172 13.12442784262923
ONEWEB-0131             
1 47277U 20100V   26155.07369168  .00000436  00000+0  11752-2 0  9999
2 47277  87.8940 353.2793 0001726  87.5242 272.6085 13.12443390262966
ONEWEB-0132             
1 47278U 20100W   26155.10249438 -.00000229  00000+0 -67107-3 0  9999
2 47278  87.8943 353.2754 0001741  85.9109 274.2219 13.12441733262863
ONEWEB-0133             
1 47279U 20100X   26155.04305139 -.00000258  00000+0 -75316-3 0  9997
2 47279  87.8953 353.2614 0001624  92.2123 267.9192 13.12444798263018
ONEWEB-0134             
1 47280U 20100Y   26155.08893774  .00000277  00000+0  73557-3 0  9994
2 47280  87.8954 353.2502 0001523  93.0759 267.0544 13.12443049262995
ONEWEB-0135             
1 47281U 20100Z   26155.06013645  .00000119  00000+0  29417-3 0  9995
2 47281  87.8938 353.2798 0001449  87.2940 272.8355 13.12445507263018
ONEWEB-0136             
1 47282U 20100AA  26155.07877583  .00000428  00000+0  11552-2 0  9999
2 47282  87.8953 353.2569 0001467  92.4524 267.6773 13.12442963262948
ONEWEB-0137             
1 47283U 20100AB  26155.03641136 -.00000359  00000+0 -10338-2 0  9995
2 47283  87.8958 353.2740 0001927  97.4121 262.7227 13.12443580262849
ONEWEB-0138             
1 47284U 20100AC  26155.01439892  .00000146  00000+0  37014-3 0  9991
2 47284  87.8955 353.2859 0001684  99.7039 260.4280 13.12441887262922
ONEWEB-0139             
1 47285U 20100AD  26155.05519265 -.00000129  00000+0 -39355-3 0  9992
2 47285  87.8951 353.2632 0001768  95.3646 264.7684 13.12445409263006
ONEWEB-0140             
1 47286U 20100AE  26155.00931556  .00000379  00000+0  10178-2 0  9995
2 47286  87.8952 353.2630 0001747  86.1433 273.9895 13.12442134262967
ONEWEB-0141             
1 47287U 20100AF  26155.05491665 -.00000014  00000+0 -73908-4 0  9993
2 47287  87.8951 353.2592 0002016  91.4621 268.6738 13.12445063262952
ONEWEB-0142             
1 47288U 20100AG  26155.04334113 -.00000452  00000+0 -12930-2 0  9999
2 47288  87.8947 353.2837 0002006 103.3571 256.7781 13.12442279262947
ONEWEB-0143             
1 47289U 20100AH  26155.05335884 -.00000047  00000+0 -16466-3 0  9996
2 47289  87.8948 353.2796 0001756  87.5338 272.5991 13.12444739262928
ONEWEB-0144             
1 47290U 20100AJ  26155.02456835 -.00001284  00000+0 -36058-2 0  9997
2 47290  87.8960 353.2604 0001214  84.5504 275.5764 13.12435109262846
ONEWEB-0145             
1 47291U 20100AK  26155.07200203  .00000431  00000+0  11627-2 0  9995
2 47291  87.8943 353.2787 0001727  90.9290 269.2036 13.12443824263040
ONEWEB-0146             
1 47292U 20100AL  26155.06861560  .00000291  00000+0  77435-3 0  9998
2 47292  87.8952 353.2704 0001887  79.5508 280.5833 13.12443933262953
ONEWEB-0147             
1 47293U 20100AM  26155.03471846 -.00000336  00000+0 -96896-3 0  9994
2 47293  87.8959 353.2582 0001642  97.6559 262.4756 13.12443397262846
ONEWEB-0115             
1 48042U 21025A   26154.99699611  .00000308  00000+0  80781-3 0  9993
2 48042  87.8948 322.8498 0001801  91.6331 268.5005 13.13468906251862
ONEWEB-0152             
1 48043U 21025B   26155.01053466  .00000086  00000+0  20158-3 0  9995
2 48043  87.8951 322.8437 0001786  88.4839 271.6494 13.13469028251828
ONEWEB-0153             
1 48044U 21025C   26154.98853007  .00000323  00000+0  85004-3 0  9995
2 48044  87.8945 322.8522 0001802  95.0164 265.1171 13.13469992251810
ONEWEB-0154             
1 48045U 21025D   26154.98514022  .00000272  00000+0  70998-3 0  9996
2 48045  87.8944 322.8500 0001721  93.1221 267.0105 13.13469471251774
ONEWEB-0116             
1 48046U 21025E   26154.49081339 -.00000365  00000+0 -10355-2 0  9998
2 48046  87.8953 322.9445 0001770  88.4206 271.7126 13.13469607251853
ONEWEB-0150             
1 48047U 21025F   26155.00037895  .00000279  00000+0  72946-3 0  9992
2 48047  87.8952 322.8400 0002026  95.5404 264.5956 13.13468909251818
ONEWEB-0107             
1 48048U 21025G   26155.00207175  .00000252  00000+0  65473-3 0  9991
2 48048  87.8953 322.8358 0001821 100.9413 259.1921 13.13468882251794
ONEWEB-0101             
1 48049U 21025H   26154.96482569 -.00000195  00000+0 -56897-3 0  9996
2 48049  87.8942 322.8602 0001678  96.0944 264.0376 13.13470300251763
ONEWEB-0113             
1 48050U 21025J   26154.99344835  .00000320  00000+0  83673-3 0  9994
2 48050  87.8966 322.7712 0001598  76.0548 284.0759 13.13895445251871
ONEWEB-0112             
1 48051U 21025K   26155.00715074  .00000121  00000+0  29674-3 0  9995
2 48051  87.8955 322.8328 0001604  99.1576 260.9734 13.13468865251866
ONEWEB-0156             
1 48052U 21025L   26155.01560914 -.00000062  00000+0 -20382-3 0  9991
2 48052  87.8954 322.8411 0001866  96.3386 263.7956 13.13468936251841
ONEWEB-0161             
1 48053U 21025M   26154.99022359  .00000340  00000+0  89506-3 0  9994
2 48053  87.8945 322.8480 0001885 100.0263 260.1079 13.13469896251771
